GLOBALSTAR M068 [-]     
1 32266U 07048D   23322.56312328 -.00000071  00000+0  18006-3 0  9996
2 32266  51.9889 259.9191 0000949   0.3384 171.5683 12.62771293744700
GLOBALSTAR M079 [+]     
1 37188U 10054A   23322.82005064 -.00000101  00000+0  16948-4 0  9998
2 37188  52.0027  94.3377 0001061 111.5864  56.2921 12.62269909603664
GLOBALSTAR M074 [+]     
1 37189U 10054B   23322.76258986 -.00000102  00000+0  85851-5 0  9996
2 37189  52.0004  93.9236 0000842 113.3992  33.8559 12.62271926604264
GLOBALSTAR M076 [+]     
1 37190U 10054C   23322.87434116 -.00000104  00000+0 -22115-5 0  9998
2 37190  52.0018  93.7038 0001226 135.3316  38.7917 12.62263797603998
GLOBALSTAR M077 [+]     
1 37191U 10054D   23322.50915029 -.00000088  00000+0  86637-4 0  9994
2 37191  52.0085  51.5071 0000546 124.2934 248.8340 12.62266491604325
GLOBALSTAR M075 [+]     
1 37192U 10054E   23322.88191007 -.00000107  00000+0 -15869-4 0  9990
2 37192  51.9922 136.2624 0001108  95.0773  52.1955 12.62267602603221
GLOBALSTAR M073 [+]     
1 37193U 10054F   23322.96584159 -.00000097  00000+0  35361-4 0  9990
2 37193  52.0073  49.3818 0000641 121.7030  49.0335 12.62269250605066
GLOBALSTAR M083 [+]     
1 37739U 11033A   23322.82079417 -.00000090  00000+0  76008-4 0  9991
2 37739  51.9880 359.3437 0000500  73.7682  98.5585 12.62262951574062
GLOBALSTAR M088 [+]     
1 37740U 11033B   23322.63590412 -.00000083  00000+0  11635-3 0  9991
2 37740  51.9739 265.8837 0000955  59.6589 111.6481 12.62267564569583
GLOBALSTAR M091 [+]     
1 37741U 11033C   23322.49077723 -.00000081  00000+0  12652-3 0  9999
2 37741  51.9995 228.8506 0001215  66.8636 103.8536 12.62268622570350
GLOBALSTAR M085 [+]     
1 37742U 11033D   23322.91794778 -.00000103  00000+0  36416-5 0  9994
2 37742  51.9849 179.0990 0001273  79.0419 294.1678 12.62265350570921
GLOBALSTAR M081 [+]     
1 37743U 11033E   23322.86526215 -.00000093  00000+0  60221-4 0  9996
2 37743  51.9939 181.6908 0001366  86.2719 287.4285 12.62267024571061
GLOBALSTAR M089 [+]     
1 37744U 11033F   23322.93801308 -.00000106  00000+0 -10970-4 0  9996
2 37744  51.9903 135.8034 0000996 111.9373  52.6227 12.62269714571914
GLOBALSTAR M084 [+]     
1 38040U 11080A   23322.87377159 -.00000086  00000+0  99657-4 0  9998
2 38040  52.0032   2.9839 0000341 150.7850  20.6312 12.62267794549888
GLOBALSTAR M080 [+]     
1 38041U 11080B   23322.84735703 -.00000087  00000+0  95219-4 0  9990
2 38041  52.0084   4.4682 0000562 153.7326  17.6407 12.62266230550006
GLOBALSTAR M082 [+]     
1 38042U 11080C   23322.78121897 -.00000089  00000+0  80765-4 0  9999
2 38042  52.0086 320.0535 0000883  26.6253 145.2931 12.62268049550703
GLOBALSTAR M092 [+]     
1 38043U 11080D   23322.56152071 -.00000097  00000+0  36570-4 0  9998
2 38043  52.0102  51.0641 0000479 159.3836 214.3272 12.62262635549130
GLOBALSTAR M090 [+]     
1 38044U 11080E   23322.72800084 -.00000089  00000+0  83417-4 0  9994
2 38044  51.9896 314.7659 0000642  47.3584 123.3951 12.62263553550815
GLOBALSTAR M086 [+]     
1 38045U 11080F   23322.75462894 -.00000081  00000+0  12476-3 0  9999
2 38045  51.9907 315.1926 0001214 104.1906  66.6044 12.62264437550765
GLOBALSTAR M097 [+]     
1 39072U 13005A   23322.42677755 -.00000085  00000+0  10449-3 0  9999
2 39072  52.0044 230.1512 0001169  67.2132 292.8859 12.62272653497975
GLOBALSTAR M093 [+]     
1 39073U 13005B   23322.47948899 -.00000083  00000+0  11723-3 0  9999
2 39073  51.9808 224.2172 0001421  70.2210 289.8809 12.62268970497934
GLOBALSTAR M094 [+]     
1 39074U 13005C   23322.79627170 -.00000111  00000+0 -41759-4 0  9997
2 39074  51.9933 137.0571 0001226  96.7739 263.3268 12.62269925499580
GLOBALSTAR M096 [+]     
1 39075U 13005D   23322.80951435 -.00000102  00000+0  12291-4 0  9992
2 39075  52.0056 185.0831 0001354  80.0349 280.0671 12.62266397498501
GLOBALSTAR M078 [+]     
1 39076U 13005E   23322.54540605  .00000012  00000+0  64433-3 0  9990
2 39076  51.9878 271.1787 0001249  11.5543 348.5352 12.62264444497301
GLOBALSTAR M095 [+]     
1 39077U 13005F   23322.57190578 -.00000084  00000+0  10922-3 0  9998
2 39077  51.9802 268.5817 0001258  38.0951 322.0004 12.62270677497317
GLOBALSTAR M087 [+]     
1 52888U 22064A   23322.41774383 -.00000084  00000+0  84089-4 0  9999
2 52888  51.9756 226.8019 0009123 182.3440 177.7419 13.37558263 69184
